ONEWEB-0395             
1 50475U 21132G   26165.11517589  .00000242  00000+0  64659-3 0  9997
2 50475  87.8887  21.6790 0002008  89.3150 270.8208 13.11419264215311
ONEWEB-0396             
1 50476U 21132H   26165.20805352 -.00000030  00000+0 -10953-3 0  9991
2 50476  87.9168 336.0474 0001958  87.7927 272.3430 13.18683914221249
ONEWEB-0397             
1 50477U 21132J   26165.22323122 -.00000016  00000+0 -72374-4 0  9994
2 50477  87.9169 336.0444 0001884  84.5817 275.5530 13.18684670221223
ONEWEB-0398             
1 50478U 21132K   26165.08294589 -.00000342  00000+0 -10021-2 0  9994
2 50478  87.8890  21.6756 0001908  94.6219 265.5127 13.11414727215201
ONEWEB-0399             
1 50479U 21132L   26165.14569376  .00000066  00000+0  15105-3 0  9991
2 50479  87.8896  21.6739 0002191  75.8223 284.3148 13.11413913215208
ONEWEB-0400             
1 50480U 21132M   26164.97368506 -.00000031  00000+0 -11112-3 0  9993
2 50480  87.9169 336.0840 0001920  97.5969 262.5382 13.18685067221187
ONEWEB-0401             
1 50481U 21132N   26164.94333005  .00000004  00000+0 -22588-4 0  9996
2 50481  87.9170 336.0870 0001650  87.0308 273.1013 13.18685207221189
ONEWEB-0402             
1 50482U 21132P   26165.20975149  .00000031  00000+0  46745-4 0  9998
2 50482  87.9168 336.0234 0001580  79.2042 280.9268 13.18685459221245
ONEWEB-0403             
1 50483U 21132Q   26165.00740320 -.00000035  00000+0 -12103-3 0  9994
2 50483  87.9168 336.0878 0001974  90.4710 269.6648 13.18684497221173
ONEWEB-0404             
1 50484U 21132R   26165.12705070  .00000542  00000+0  14941-2 0  9993
2 50484  87.8891  21.6763 0002166  83.8280 276.3094 13.11417286215297
ONEWEB-0405             
1 50485U 21132S   26164.94502410  .00000002  00000+0 -28409-4 0  9994
2 50485  87.9173 336.0847 0001955 105.6549 254.4799 13.18686937221568
ONEWEB-0406             
1 50486U 21132T   26165.01246353  .00000051  00000+0  96588-4 0  9991
2 50486  87.9165 336.0879 0002343  87.2089 272.9311 13.18685074221208
ONEWEB-0407             
1 50487U 21132U   26165.00572528 -.00000006  00000+0 -47367-4 0  9990
2 50487  87.9169 336.0812 0001633  94.8593 265.2726 13.18684862221147
ONEWEB-0409             
1 50488U 21132V   26165.12534694  .00000549  00000+0  15137-2 0  9994
2 50488  87.8895  21.6647 0002119  86.8251 273.3120 13.11418476215182
ONEWEB-0412             
1 50489U 21132W   26165.22154171  .00000044  00000+0  77920-4 0  9994
2 50489  87.9167 336.0469 0001644  83.8012 276.3307 13.18684536221260
ONEWEB-0413             
1 50490U 21132X   26164.99899649 -.00001132  00000+0 -29043-2 0  9997
2 50490  87.9157 336.0918 0001838  95.2825 264.8517 13.18672195221177
ONEWEB-0414             
1 50491U 21132Y   26165.21143129  .00000057  00000+0  11245-3 0  9998
2 50491  87.9168 336.0293 0001838  86.5272 273.6070 13.18684644221236
ONEWEB-0417             
1 50492U 21132Z   26165.21985986  .00000064  00000+0  12971-3 0  9999
2 50492  87.9159 336.0475 0002076  91.3519 268.7851 13.18685190221219
ONEWEB-0418             
1 50493U 21132AA  26165.22982662 -.00000446  00000+0 -11647-2 0  9993
2 50493  87.9170 336.0453 0002226  92.4446 267.6941 13.18696699221277
ONEWEB-0419             
1 50494U 21132AB  26164.94488257  .00000003  00000+0 -25814-4 0  9994
2 50494  87.9169 336.1010 0002087  97.2011 262.9358 13.18665852221156
ONEWEB-0420             
1 50495U 21132AC  26165.21311321  .00000033  00000+0  50761-4 0  9994
2 50495  87.9161 336.0511 0001662  95.4818 264.6504 13.18685440221187
ONEWEB-0421             
1 50496U 21132AD  26165.20636883 -.00000022  00000+0 -89370-4 0  9995
2 50496  87.9165 336.0498 0001841  80.7208 279.4133 13.18683763221228
ONEWEB-0424             
1 50497U 21132AE  26164.93995998  .00000013  00000+0  31600-6 0  9993
2 50497  87.9168 336.1008 0002035 101.2896 258.8465 13.18685372221214
ONEWEB-0426             
1 50498U 21132AF  26165.20214842  .00000011  00000+0 -61168-5 0  9997
2 50498  87.9168 336.0398 0002343  77.9359 282.2036 13.18688467221191
ONEWEB-0427             
1 50499U 21132AG  26164.93827425 -.00000006  00000+0 -47254-4 0  9998
2 50499  87.9170 336.0808 0002031  90.1072 270.0293 13.18685229221186
ONEWEB-0429             
1 50500U 21132AH  26165.00066158  .00000019  00000+0  15873-4 0  9992
2 50500  87.9162 336.0932 0001709  93.1790 266.9537 13.18685248221163
ONEWEB-0430             
1 50501U 21132AJ  26165.21648529  .00000043  00000+0  75571-4 0  9992
2 50501  87.9162 336.0486 0001755 100.8155 259.3175 13.18685587221238
ONEWEB-0432             
1 50502U 21132AK  26165.18041634 -.00000027  00000+0 -10390-3 0  9994
2 50502  87.9170 336.0317 0002111 109.1480 250.9880 13.17155221221181
ONEWEB-0440             
1 50503U 21132AL  26165.23671881  .00000031  00000+0  46838-4 0  9994
2 50503  87.9170 336.0404 0001586  84.6515 275.4798 13.18685033221180
ONEWEB-0450             
1 50504U 21132AM  26165.23011916 -.00000003  00000+0 -41083-4 0  9990
2 50504  87.9159 336.0473 0001661  95.8388 264.2934 13.18685441221215
