OBJECT_NAME,OBJECT_ID,EPOCH,MEAN_MOTION,ECCENTRICITY,INCLINATION,RA_OF_ASC_NODE,ARG_OF_PERICENTER,MEAN_ANOMALY,EPHEMERIS_TYPE,CLASSIFICATION_TYPE,NORAD_CAT_ID,ELEMENT_SET_NO,REV_AT_EPOCH,BSTAR,MEAN_MOTION_DOT,MEAN_MOTION_DDOT
ONEWEB-0395,2021-132G,2026-06-14T02:45:51.196896,13.11419264,.00020086,87.8887,21.6790,89.3150,270.8208,0,U,50475,999,21531,.64659496E-3,.242E-5,0
ONEWEB-0396,2021-132H,2026-06-14T04:59:35.824128,13.18683914,.00019589,87.9168,336.0474,87.7927,272.3430,0,U,50476,999,22124,-.10953354E-3,-.3E-6,0
ONEWEB-0397,2021-132J,2026-06-14T05:21:27.177408,13.18684670,.00018848,87.9169,336.0444,84.5817,275.5530,0,U,50477,999,22122,-.72374273E-4,-.16E-6,0
ONEWEB-0398,2021-132K,2026-06-14T01:59:26.524896,13.11414727,.00019088,87.8890,21.6756,94.6219,265.5127,0,U,50478,999,21520,-.10021451E-2,-.342E-5,0
ONEWEB-0399,2021-132L,2026-06-14T03:29:47.940864,13.11413913,.00021912,87.8896,21.6739,75.8223,284.3148,0,U,50479,999,21520,.15105082E-3,.66E-6,0
ONEWEB-0400,2021-132M,2026-06-13T23:22:06.389184,13.18685067,.00019203,87.9169,336.0840,97.5969,262.5382,0,U,50480,999,22118,-.11111867E-3,-.31E-6,0
ONEWEB-0401,2021-132N,2026-06-13T22:38:23.716320,13.18685207,.00016504,87.9170,336.0870,87.0308,273.1013,0,U,50481,999,22118,-.22587917E-4,.4E-7,0
ONEWEB-0402,2021-132P,2026-06-14T05:02:02.528736,13.18685459,.00015808,87.9168,336.0234,79.2042,280.9268,0,U,50482,999,22124,.46745295E-4,.31E-6,0
ONEWEB-0403,2021-132Q,2026-06-14T00:10:39.636480,13.18684497,.0001974,87.9168,336.0878,90.4710,269.6648,0,U,50483,999,22117,-.12103131E-3,-.35E-6,0
ONEWEB-0404,2021-132R,2026-06-14T03:02:57.180480,13.11417286,.00021665,87.8891,21.6763,83.8280,276.3094,0,U,50484,999,21529,.14940753E-2,.542E-5,0
ONEWEB-0405,2021-132S,2026-06-13T22:40:50.082240,13.18686937,.00019552,87.9173,336.0847,105.6549,254.4799,0,U,50485,999,22156,-.28408681E-4,.2E-7,0
ONEWEB-0406,2021-132T,2026-06-14T00:17:56.848992,13.18685074,.00023435,87.9165,336.0879,87.2089,272.9311,0,U,50486,999,22120,.96587624E-4,.51E-6,0
ONEWEB-0407,2021-132U,2026-06-14T00:08:14.664192,13.18684862,.00016338,87.9169,336.0812,94.8593,265.2726,0,U,50487,999,22114,-.47367307E-4,-.6E-7,0
ONEWEB-0409,2021-132V,2026-06-14T03:00:29.975616,13.11418476,.00021196,87.8895,21.6647,86.8251,273.3120,0,U,50488,999,21518,.15136527E-2,.549E-5,0
ONEWEB-0412,2021-132W,2026-06-14T05:19:01.203744,13.18684536,.00016444,87.9167,336.0469,83.8012,276.3307,0,U,50489,999,22126,.77920394E-4,.44E-6,0
ONEWEB-0413,2021-132X,2026-06-13T23:58:33.296736,13.18672195,.00018386,87.9157,336.0918,95.2825,264.8517,0,U,50490,999,22117,-.29043091E-2,-.1132E-4,0
ONEWEB-0414,2021-132Y,2026-06-14T05:04:27.663456,13.18684644,.00018384,87.9168,336.0293,86.5272,273.6070,0,U,50491,999,22123,.11244629E-3,.57E-6,0
ONEWEB-0417,2021-132Z,2026-06-14T05:16:35.891904,13.18685190,.0002076,87.9159,336.0475,91.3519,268.7851,0,U,50492,999,22121,.12971156E-3,.64E-6,0
ONEWEB-0418,2021-132AA,2026-06-14T05:30:57.019968,13.18696699,.00022265,87.9170,336.0453,92.4446,267.6941,0,U,50493,999,22127,-.11646793E-2,-.446E-5,0
ONEWEB-0419,2021-132AB,2026-06-13T22:40:37.854048,13.18665852,.00020874,87.9169,336.1010,97.2011,262.9358,0,U,50494,999,22115,-.25813681E-4,.3E-7,0
ONEWEB-0420,2021-132AC,2026-06-14T05:06:52.981344,13.18685440,.00016621,87.9161,336.0511,95.4818,264.6504,0,U,50495,999,22118,.5076132E-4,.33E-6,0
ONEWEB-0421,2021-132AD,2026-06-14T04:57:10.266912,13.18683763,.00018419,87.9165,336.0498,80.7208,279.4133,0,U,50496,999,22122,-.8937019E-4,-.22E-6,0
ONEWEB-0424,2021-132AE,2026-06-13T22:33:32.542272,13.18685372,.00020357,87.9168,336.1008,101.2896,258.8465,0,U,50497,999,22121,.315998E-6,.13E-6,0
ONEWEB-0426,2021-132AF,2026-06-14T04:51:05.623488,13.18688467,.00023434,87.9168,336.0398,77.9359,282.2036,0,U,50498,999,22119,-.6116758E-5,.11E-6,0
ONEWEB-0427,2021-132AG,2026-06-13T22:31:06.895200,13.18685229,.0002031,87.9170,336.0808,90.1072,270.0293,0,U,50499,999,22118,-.47254E-4,-.6E-7,0
ONEWEB-0429,2021-132AH,2026-06-14T00:00:57.160512,13.18685248,.00017092,87.9162,336.0932,93.1790,266.9537,0,U,50500,999,22116,.1587265E-4,.19E-6,0
ONEWEB-0430,2021-132AJ,2026-06-14T05:11:44.329056,13.18685587,.00017557,87.9162,336.0486,100.8155,259.3175,0,U,50501,999,22123,.75571371E-4,.43E-6,0
ONEWEB-0432,2021-132AK,2026-06-14T04:19:47.971776,13.17155221,.00021119,87.9170,336.0317,109.1480,250.9880,0,U,50502,999,22118,-.10390269E-3,-.27E-6,0
ONEWEB-0440,2021-132AL,2026-06-14T05:40:52.505184,13.18685033,.00015866,87.9170,336.0404,84.6515,275.4798,0,U,50503,999,22118,.46838105E-4,.31E-6,0
ONEWEB-0450,2021-132AM,2026-06-14T05:31:22.295424,13.18685441,.00016616,87.9159,336.0473,95.8388,264.2934,0,U,50504,999,22121,-.41082952E-4,-.3E-7,0
